{"type": "FeatureCollection", "features": [{"type": "Feature", "properties": {"norad_id": 37846, "name": "GSAT0101 (GALILEO-PFM)", "group": "galileo", "lat": 36.99936159776989, "lon": 15.788888798174503, "alt_km": 23216.853240811335, "timestamp": "2025-12-22T22:44:21.238225+00:00", "meta": {"OBJECT_NAME": "GSAT0101 (GALILEO-PFM)", "OBJECT_ID": "2011-060A", "EPOCH": "2025-12-22T06:52:10.962336", "MEAN_MOTION": 1.70475741, "ECCENTRICITY": 0.00032123, "INCLINATION": 57.0506, "RA_OF_ASC_NODE": 346.5611, "ARG_OF_PERICENTER": 320.0005, "MEAN_ANOMALY": 39.9838, "EPHEMERIS_TYPE": 0, "CLASSIFICATION_TYPE": "U", "NORAD_CAT_ID": 37846, "ELEMENT_SET_NO": 999, "REV_AT_EPOCH": 8810, "BSTAR": 0, "MEAN_MOTION_DOT": -6.5e-07, "MEAN_MOTION_DDOT": 0}, "tle": {"line1": "1 37846U 11060A   25356.28623799 -.00000065  00000+0  00000+0 0  9993", "line2": "2 37846  57.0506 346.5611 0003212 320.0005  39.9838  1.70475741 88100"}}, "geometry": {"type": "Point", "coordinates": [15.788888798174503, 36.99936159776989]}}, {"type": "Feature", "properties": {"norad_id": 37847, "name": "GSAT0102 (GALILEO-FM2)", "group": "galileo", "lat": 57.010107976535934, "lon": 78.96890731140884, "alt_km": 23226.909570993277, "timestamp": "2025-12-22T22:44:21.238246+00:00", "meta": {"OBJECT_NAME": "GSAT0102 (GALILEO-FM2)", "OBJECT_ID": "2011-060B", "EPOCH": "2025-12-21T21:59:38.834016", "MEAN_MOTION": 1.70475998, "ECCENTRICITY": 0.00051487, "INCLINATION": 57.0514, "RA_OF_ASC_NODE": 346.5715, "ARG_OF_PERICENTER": 312.846, "MEAN_ANOMALY": 225.6479, "EPHEMERIS_TYPE": 0, "CLASSIFICATION_TYPE": "U", "NORAD_CAT_ID": 37847, "ELEMENT_SET_NO": 999, "REV_AT_EPOCH": 8810, "BSTAR": 0, "MEAN_MOTION_DOT": -6.6e-07, "MEAN_MOTION_DDOT": 0}, "tle": {"line1": "1 37847U 11060B   25355.91642169 -.00000066  00000+0  00000+0 0  9996", "line2": "2 37847  57.0514 346.5715 0005148 312.8460 225.6479  1.70475998 88108"}}, "geometry": {"type": "Point", "coordinates": [78.96890731140884, 57.010107976535934]}}, {"type": "Feature", "properties": {"norad_id": 38857, "name": "GSAT0103 (GALILEO-FM3)", "group": "galileo", "lat": 17.34784941541914, "lon": 118.67865794458741, "alt_km": 23223.40478905362, "timestamp": "2025-12-22T22:44:21.238261+00:00", "meta": {"OBJECT_NAME": "GSAT0103 (GALILEO-FM3)", "OBJECT_ID": "2012-055A", "EPOCH": "2025-12-18T05:17:11.481792", "MEAN_MOTION": 1.70473412, "ECCENTRICITY": 0.00028558, "INCLINATION": 55.6954, "RA_OF_ASC_NODE": 106.5161, "ARG_OF_PERICENTER": 269.0808, "MEAN_ANOMALY": 90.8455, "EPHEMERIS_TYPE": 0, "CLASSIFICATION_TYPE": "U", "NORAD_CAT_ID": 38857, "ELEMENT_SET_NO": 999, "REV_AT_EPOCH": 8192, "BSTAR": 0, "MEAN_MOTION_DOT": -7e-08, "MEAN_MOTION_DDOT": 0}, "tle": {"line1": "1 38857U 12055A   25352.22027178 -.00000007  00000+0  00000+0 0  9996", "line2": "2 38857  55.6954 106.5161 0002855 269.0808  90.8455  1.70473412 81920"}}, "geometry": {"type": "Point", "coordinates": [118.67865794458741, 17.34784941541914]}}, {"type": "Feature", "properties": {"norad_id": 40128, "name": "GSAT0201 (GALILEO 5)", "group": "galileo", "lat": -35.39423190774664, "lon": 138.64157279477533, "alt_km": 18613.702554209227, "timestamp": "2025-12-22T22:44:21.238275+00:00", "meta": {"OBJECT_NAME": "GSAT0201 (GALILEO 5)", "OBJECT_ID": "2014-050A", "EPOCH": "2025-12-22T02:10:25.077792", "MEAN_MOTION": 1.85519674, "ECCENTRICITY": 0.16488719, "INCLINATION": 49.0659, "RA_OF_ASC_NODE": 280.6824, "ARG_OF_PERICENTER": 172.6344, "MEAN_ANOMALY": 190.1824, "EPHEMERIS_TYPE": 0, "CLASSIFICATION_TYPE": "U", "NORAD_CAT_ID": 40128, "ELEMENT_SET_NO": 999, "REV_AT_EPOCH": 7503, "BSTAR": 0, "MEAN_MOTION_DOT": -3.7e-07, "MEAN_MOTION_DDOT": 0}, "tle": {"line1": "1 40128U 14050A   25356.09056803 -.00000037  00000+0  00000+0 0  9996", "line2": "2 40128  49.0659 280.6824 1648871 172.6344 190.1824  1.85519674 75038"}}, "geometry": {"type": "Point", "coordinates": [138.64157279477533, -35.39423190774664]}}, {"type": "Feature", "properties": {"norad_id": 40129, "name": "GSAT0202 (GALILEO 6)", "group": "galileo", "lat": 22.869013557009296, "lon": -58.8510898110908, "alt_km": 24934.937126056986, "timestamp": "2025-12-22T22:44:21.238287+00:00", "meta": {"OBJECT_NAME": "GSAT0202 (GALILEO 6)", "OBJECT_ID": "2014-050B", "EPOCH": "2025-12-18T13:46:22.484640", "MEAN_MOTION": 1.85520466, "ECCENTRICITY": 0.16491259, "INCLINATION": 49.0858, "RA_OF_ASC_NODE": 279.9095, "ARG_OF_PERICENTER": 173.2442, "MEAN_ANOMALY": 189.3393, "EPHEMERIS_TYPE": 0, "CLASSIFICATION_TYPE": "U", "NORAD_CAT_ID": 40129, "ELEMENT_SET_NO": 999, "REV_AT_EPOCH": 7713, "BSTAR": 0, "MEAN_MOTION_DOT": -5.9e-07, "MEAN_MOTION_DDOT": 0}, "tle": {"line1": "1 40129U 14050B   25352.57387135 -.00000059  00000+0  00000+0 0  9995", "line2": "2 40129  49.0858 279.9095 1649125 173.2442 189.3393  1.85520466 77135"}}, "geometry": {"type": "Point", "coordinates": [-58.8510898110908, 22.869013557009296]}}, {"type": "Feature", "properties": {"norad_id": 40544, "name": "GSAT0203 (GALILEO 7)", "group": "galileo", "lat": -1.5992703552001637, "lon": 167.4358806526846, "alt_km": 23223.238397386805, "timestamp": "2025-12-22T22:44:21.238299+00:00", "meta": {"OBJECT_NAME": "GSAT0203 (GALILEO 7)", "OBJECT_ID": "2015-017A", "EPOCH": "2025-12-20T07:18:34.773696", "MEAN_MOTION": 1.70475998, "ECCENTRICITY": 0.00064692, "INCLINATION": 56.8445, "RA_OF_ASC_NODE": 346.4738, "ARG_OF_PERICENTER": 274.1452, "MEAN_ANOMALY": 85.7909, "EPHEMERIS_TYPE": 0, "CLASSIFICATION_TYPE": "U", "NORAD_CAT_ID": 40544, "ELEMENT_SET_NO": 999, "REV_AT_EPOCH": 6615, "BSTAR": 0, "MEAN_MOTION_DOT": -7.1e-07, "MEAN_MOTION_DDOT": 0}, "tle": {"line1": "1 40544U 15017A   25354.30456914 -.00000071  00000+0  00000+0 0  9999", "line2": "2 40544  56.8445 346.4738 0006469 274.1452  85.7909  1.70475998 66152"}}, "geometry": {"type": "Point", "coordinates": [167.4358806526846, -1.5992703552001637]}}, {"type": "Feature", "properties": {"norad_id": 40545, "name": "GSAT0204 (GALILEO 8)", "group": "galileo", "lat": 20.88320673604156, "lon": 0.8462971474192852, "alt_km": 23228.221767193732, "timestamp": "2025-12-22T22:44:21.238311+00:00", "meta": {"OBJECT_NAME": "GSAT0204 (GALILEO 8)", "OBJECT_ID": "2015-017B", "EPOCH": "2025-12-20T13:26:28.826304", "MEAN_MOTION": 1.70475697, "ECCENTRICITY": 0.0006133, "INCLINATION": 56.8522, "RA_OF_ASC_NODE": 346.4847, "ARG_OF_PERICENTER": 266.5447, "MEAN_ANOMALY": 93.3948, "EPHEMERIS_TYPE": 0, "CLASSIFICATION_TYPE": "U", "NORAD_CAT_ID": 40545, "ELEMENT_SET_NO": 999, "REV_AT_EPOCH": 2920, "BSTAR": 0, "MEAN_MOTION_DOT": -7e-07, "MEAN_MOTION_DDOT": 0}, "tle": {"line1": "1 40545U 15017B   25354.56005586 -.00000070  00000+0  00000+0 0  9992", "line2": "2 40545  56.8522 346.4847 0006133 266.5447  93.3948  1.70475697 29206"}}, "geometry": {"type": "Point", "coordinates": [0.8462971474192852, 20.88320673604156]}}, {"type": "Feature", "properties": {"norad_id": 40889, "name": "GSAT0205 (GALILEO 9)", "group": "galileo", "lat": 10.302788335920363, "lon": 39.177294419452565, "alt_km": 23231.87231612443, "timestamp": "2025-12-22T22:44:21.238322+00:00", "meta": {"OBJECT_NAME": "GSAT0205 (GALILEO 9)", "OBJECT_ID": "2015-045A", "EPOCH": "2025-12-20T21:57:55.201536", "MEAN_MOTION": 1.70473188, "ECCENTRICITY": 0.00060952, "INCLINATION": 55.0008, "RA_OF_ASC_NODE": 226.5322, "ARG_OF_PERICENTER": 41.0262, "MEAN_ANOMALY": 319.1287, "EPHEMERIS_TYPE": 0, "CLASSIFICATION_TYPE": "U", "NORAD_CAT_ID": 40889, "ELEMENT_SET_NO": 999, "REV_AT_EPOCH": 6397, "BSTAR": 0, "MEAN_MOTION_DOT": 7.2e-07, "MEAN_MOTION_DDOT": 0}, "tle": {"line1": "1 40889U 15045A   25354.91522224  .00000072  00000+0  00000+0 0  9997", "line2": "2 40889  55.0008 226.5322 0006095  41.0262 319.1287  1.70473188 63971"}}, "geometry": {"type": "Point", "coordinates": [39.177294419452565, 10.302788335920363]}}, {"type": "Feature", "properties": {"norad_id": 40890, "name": "GSAT0206 (GALILEO 10)", "group": "galileo", "lat": 25.59899006564974, "lon": -113.90403259589152, "alt_km": 23206.47072911111, "timestamp": "2025-12-22T22:44:21.238334+00:00", "meta": {"OBJECT_NAME": "GSAT0206 (GALILEO 10)", "OBJECT_ID": "2015-045B", "EPOCH": "2025-12-21T03:15:40.639392", "MEAN_MOTION": 1.70473045, "ECCENTRICITY": 0.00044191, "INCLINATION": 54.9998, "RA_OF_ASC_NODE": 226.5212, "ARG_OF_PERICENTER": 45.8333, "MEAN_ANOMALY": 314.3117, "EPHEMERIS_TYPE": 0, "CLASSIFICATION_TYPE": "U", "NORAD_CAT_ID": 40890, "ELEMENT_SET_NO": 999, "REV_AT_EPOCH": 6400, "BSTAR": 0, "MEAN_MOTION_DOT": 7.2e-07, "MEAN_MOTION_DDOT": 0}, "tle": {"line1": "1 40890U 15045B   25355.13588703  .00000072  00000+0  00000+0 0  9998", "line2": "2 40890  54.9998 226.5212 0004419  45.8333 314.3117  1.70473045 64002"}}, "geometry": {"type": "Point", "coordinates": [-113.90403259589152, 25.59899006564974]}}, {"type": "Feature", "properties": {"norad_id": 41174, "name": "GSAT0209 (GALILEO 12)", "group": "galileo", "lat": -51.53404374237195, "lon": 47.08462185726172, "alt_km": 23223.413329357765, "timestamp": "2025-12-22T22:44:21.238345+00:00", "meta": {"OBJECT_NAME": "GSAT0209 (GALILEO 12)", "OBJECT_ID": "2015-079A", "EPOCH": "2025-12-21T21:22:17.332896", "MEAN_MOTION": 1.70474556, "ECCENTRICITY": 0.00025231, "INCLINATION": 55.7178, "RA_OF_ASC_NODE": 106.13, "ARG_OF_PERICENTER": 342.7574, "MEAN_ANOMALY": 17.2091, "EPHEMERIS_TYPE": 0, "CLASSIFICATION_TYPE": "U", "NORAD_CAT_ID": 41174, "ELEMENT_SET_NO": 999, "REV_AT_EPOCH": 6175, "BSTAR": 0, "MEAN_MOTION_DOT": 5e-08, "MEAN_MOTION_DDOT": 0}, "tle": {"line1": "1 41174U 15079A   25355.89047839  .00000005  00000+0  00000+0 0  9990", "line2": "2 41174  55.7178 106.1300 0002523 342.7574  17.2091  1.70474556 61755"}}, "geometry": {"type": "Point", "coordinates": [47.08462185726172, -51.53404374237195]}}]}